[{"OBJECT_NAME":"STARLINK-2570","OBJECT_ID":"2021-038BE","EPOCH":"2026-03-09T21:34:35.486112","MEAN_MOTION":15.30189438,"ECCENTRICITY":0.00011491,"INCLINATION":53.1602,"RA_OF_ASC_NODE":331.8971,"ARG_OF_PERICENTER":114.9213,"MEAN_ANOMALY":245.1907,"EPHEMERIS_TYPE":0,"CLASSIFICATION_TYPE":"U","NORAD_CAT_ID":48405,"ELEMENT_SET_NO":999,"REV_AT_EPOCH":26746,"BSTAR":-2.4708859e-5,"MEAN_MOTION_DOT":-1.091e-5,"MEAN_MOTION_DDOT":0},{"OBJECT_NAME":"CS2","OBJECT_ID":"2021-088C","EPOCH":"2026-03-09T17:38:11.846112","MEAN_MOTION":15.3325593,"ECCENTRICITY":0.00116375,"INCLINATION":97.3928,"RA_OF_ASC_NODE":134.2907,"ARG_OF_PERICENTER":82.3491,"MEAN_ANOMALY":277.9072,"EPHEMERIS_TYPE":0,"CLASSIFICATION_TYPE":"U","NORAD_CAT_ID":49262,"ELEMENT_SET_NO":999,"REV_AT_EPOCH":24526,"BSTAR":0.0005617759,"MEAN_MOTION_DOT":0.00018033,"MEAN_MOTION_DDOT":0}]
